[{"OBJECT_NAME":"SAUDICOMSAT 3","OBJECT_ID":"2007-012J","EPOCH":"2026-03-09T21:56:33.601056","MEAN_MOTION":14.70526386,"ECCENTRICITY":0.0039477,"INCLINATION":98.305,"RA_OF_ASC_NODE":42.4048,"ARG_OF_PERICENTER":7.9063,"MEAN_ANOMALY":352.2756,"EPHEMERIS_TYPE":0,"CLASSIFICATION_TYPE":"U","NORAD_CAT_ID":31125,"ELEMENT_SET_NO":999,"REV_AT_EPOCH":1023,"BSTAR":0.00027068217,"MEAN_MOTION_DOT":1.608e-5,"MEAN_MOTION_DDOT":0},{"OBJECT_NAME":"COSMOS 2251 DEB","OBJECT_ID":"1993-036DQ","EPOCH":"2026-03-09T22:46:14.377728","MEAN_MOTION":14.7753798,"ECCENTRICITY":0.00154162,"INCLINATION":74.092,"RA_OF_ASC_NODE":351.6782,"ARG_OF_PERICENTER":258.0076,"MEAN_ANOMALY":222.0326,"EPHEMERIS_TYPE":0,"CLASSIFICATION_TYPE":"U","NORAD_CAT_ID":33911,"ELEMENT_SET_NO":999,"REV_AT_EPOCH":89931,"BSTAR":0.002265833,"MEAN_MOTION_DOT":0.00016213,"MEAN_MOTION_DDOT":0}]
